[{"OBJECT_NAME":"STARLINK-35093","OBJECT_ID":"2025-195W","EPOCH":"2026-03-09T19:24:36.512352","MEAN_MOTION":15.30149473,"ECCENTRICITY":0.00010789,"INCLINATION":53.1575,"RA_OF_ASC_NODE":257.4995,"ARG_OF_PERICENTER":68.3381,"MEAN_ANOMALY":291.7734,"EPHEMERIS_TYPE":0,"CLASSIFICATION_TYPE":"U","NORAD_CAT_ID":65478,"ELEMENT_SET_NO":999,"REV_AT_EPOCH":2999,"BSTAR":0.00095478857,"MEAN_MOTION_DOT":0.00027981,"MEAN_MOTION_DDOT":0},{"OBJECT_NAME":"KUIPER-00180","OBJECT_ID":"2026-030E","EPOCH":"2026-03-09T22:29:40.634304","MEAN_MOTION":15.31865817,"ECCENTRICITY":0.00157227,"INCLINATION":51.8823,"RA_OF_ASC_NODE":218.464,"ARG_OF_PERICENTER":75.5448,"MEAN_ANOMALY":284.728,"EPHEMERIS_TYPE":0,"CLASSIFICATION_TYPE":"U","NORAD_CAT_ID":67768,"ELEMENT_SET_NO":999,"REV_AT_EPOCH":512,"BSTAR":0.011360708,"MEAN_MOTION_DOT":0.00373574,"MEAN_MOTION_DDOT":0}]
